{
  "type": "FeatureCollection",
  "features": [
    {
      "type": "Feature",
      "properties": {
        "norad_id": 31978,
        "name": "FENGYUN 1C DEB",
        "group": "fengyun-1c-debris",
        "lat": 66.33601002348718,
        "lon": 114.97156418083033,
        "alt_km": 823.5880612047249,
        "timestamp": "2025-12-04T10:51:50.390615+00:00",
        "meta_object_name": "FENGYUN 1C DEB",
        "meta_object_id": "1999-025CPF",
        "meta_epoch": "2025-11-24T09:11:44.769120",
        "meta_mean_motion": 13.63055999,
        "meta_eccentricity": 0.02632898,
        "meta_inclination": 98.3792,
        "meta_ra_of_asc_node": 125.945,
        "meta_arg_of_pericenter": 98.6092,
        "meta_mean_anomaly": 264.4976,
        "meta_ephemeris_type": 0,
        "meta_classification_type": "U",
        "meta_norad_cat_id": 31978,
        "meta_element_set_no": 999,
        "meta_rev_at_epoch": 91340,
        "meta_bstar": 0.0013570438,
        "meta_mean_motion_dot": 1.31e-05,
        "meta_mean_motion_ddot": 0,
        "tle_line1": "1 31978U 99025CPF 25328.38315705  .00001310  00000+0  13570-2 0  9997",
        "tle_line2": "2 31978  98.3792 125.9450 0263289  98.6092 264.4976 13.63055999913403"
      },
      "geometry": {
        "type": "Point",
        "coordinates": [
          114.97156418083033,
          66.33601002348718
        ]
      }
    },
    {
      "type": "Feature",
      "properties": {
        "norad_id": 31979,
        "name": "FENGYUN 1C DEB",
        "group": "fengyun-1c-debris",
        "lat": 21.631653813602167,
        "lon": -104.97740369736397,
        "alt_km": 1159.55946588198,
        "timestamp": "2025-12-04T10:51:50.390625+00:00",
        "meta_object_name": "FENGYUN 1C DEB",
        "meta_object_id": "1999-025CPG",
        "meta_epoch": "2025-12-02T12:28:35.492736",
        "meta_mean_motion": 13.69187291,
        "meta_eccentricity": 0.02646506,
        "meta_inclination": 99.3777,
        "meta_ra_of_asc_node": 69.3826,
        "meta_arg_of_pericenter": 307.5764,
        "meta_mean_anomaly": 50.1611,
        "meta_ephemeris_type": 0,
        "meta_classification_type": "U",
        "meta_norad_cat_id": 31979,
        "meta_element_set_no": 999,
        "meta_rev_at_epoch": 57772,
        "meta_bstar": 0.003510695,
        "meta_mean_motion_dot": 3.844e-05,
        "meta_mean_motion_ddot": 0,
        "tle_line1": "1 31979U 99025CPG 25336.51985524  .00003844  00000+0  35107-2 0  9998",
        "tle_line2": "2 31979  99.3777  69.3826 0264650 307.5764  50.1611 13.69187291577721"
      },
      "geometry": {
        "type": "Point",
        "coordinates": [
          -104.97740369736397,
          21.631653813602167
        ]
      }
    },
    {
      "type": "Feature",
      "properties": {
        "norad_id": 31980,
        "name": "FENGYUN 1C DEB",
        "group": "fengyun-1c-debris",
        "lat": -51.33417423996049,
        "lon": -123.76350779430878,
        "alt_km": 1175.6293293120261,
        "timestamp": "2025-12-04T10:51:50.390635+00:00",
        "meta_object_name": "FENGYUN 1C DEB",
        "meta_object_id": "1999-025CPH",
        "meta_epoch": "2025-11-07T01:33:48.122784",
        "meta_mean_motion": 13.32082371,
        "meta_eccentricity": 0.04288031,
        "meta_inclination": 97.6138,
        "meta_ra_of_asc_node": 45.4675,
        "meta_arg_of_pericenter": 204.355,
        "meta_mean_anomaly": 153.6774,
        "meta_ephemeris_type": 0,
        "meta_classification_type": "U",
        "meta_norad_cat_id": 31980,
        "meta_element_set_no": 999,
        "meta_rev_at_epoch": 89195,
        "meta_bstar": 0.0011351544,
        "meta_mean_motion_dot": 8.87e-06,
        "meta_mean_motion_ddot": 0,
        "tle_line1": "1 31980U 99025CPH 25311.06514031  .00000887  00000+0  11352-2 0  9994",
        "tle_line2": "2 31980  97.6138  45.4675 0428803 204.3550 153.6774 13.32082371891957"
      },
      "geometry": {
        "type": "Point",
        "coordinates": [
          -123.76350779430878,
          -51.33417423996049
        ]
      }
    },
    {
      "type": "Feature",
      "properties": {
        "norad_id": 31984,
        "name": "FENGYUN 1C DEB",
        "group": "fengyun-1c-debris",
        "lat": 33.743821813636295,
        "lon": -22.74997375337332,
        "alt_km": 848.8091099391122,
        "timestamp": "2025-12-04T10:51:50.390646+00:00",
        "meta_object_name": "FENGYUN 1C DEB",
        "meta_object_id": "1999-025CPM",
        "meta_epoch": "2025-12-02T19:53:15.322848",
        "meta_mean_motion": 14.2293256,
        "meta_eccentricity": 0.00625309,
        "meta_inclination": 98.5577,
        "meta_ra_of_asc_node": 341.445,
        "meta_arg_of_pericenter": 256.5759,
        "meta_mean_anomaly": 102.8445,
        "meta_ephemeris_type": 0,
        "meta_classification_type": "U",
        "meta_norad_cat_id": 31984,
        "meta_element_set_no": 999,
        "meta_rev_at_epoch": 94232,
        "meta_bstar": 0.00049073387,
        "meta_mean_motion_dot": 1.083e-05,
        "meta_mean_motion_ddot": 0,
        "tle_line1": "1 31984U 99025CPM 25336.82864957  .00001083  00000+0  49073-3 0  9995",
        "tle_line2": "2 31984  98.5577 341.4450 0062530 256.5759 102.8445 14.22932560942322"
      },
      "geometry": {
        "type": "Point",
        "coordinates": [
          -22.74997375337332,
          33.743821813636295
        ]
      }
    },
    {
      "type": "Feature",
      "properties": {
        "norad_id": 31985,
        "name": "FENGYUN 1C DEB",
        "group": "fengyun-1c-debris",
        "lat": 13.236650498339715,
        "lon": 62.165740789396494,
        "alt_km": 842.9578416442046,
        "timestamp": "2025-12-04T10:51:50.390656+00:00",
        "meta_object_name": "FENGYUN 1C DEB",
        "meta_object_id": "1999-025CPN",
        "meta_epoch": "2025-11-24T23:55:40.651392",
        "meta_mean_motion": 14.22924304,
        "meta_eccentricity": 0.01509495,
        "meta_inclination": 98.2192,
        "meta_ra_of_asc_node": 231.3867,
        "meta_arg_of_pericenter": 299.2224,
        "meta_mean_anomaly": 59.3931,
        "meta_ephemeris_type": 0,
        "meta_classification_type": "U",
        "meta_norad_cat_id": 31985,
        "meta_element_set_no": 999,
        "meta_rev_at_epoch": 95358,
        "meta_bstar": 0.0005103033,
        "meta_mean_motion_dot": 1.248e-05,
        "meta_mean_motion_ddot": 0,
        "tle_line1": "1 31985U 99025CPN 25328.99699828  .00001248  00000+0  51030-3 0  9997",
        "tle_line2": "2 31985  98.2192 231.3867 0150949 299.2224  59.3931 14.22924304953588"
      },
      "geometry": {
        "type": "Point",
        "coordinates": [
          62.165740789396494,
          13.236650498339715
        ]
      }
    },
    {
      "type": "Feature",
      "properties": {
        "norad_id": 31987,
        "name": "FENGYUN 1C DEB",
        "group": "fengyun-1c-debris",
        "lat": 17.642462001790022,
        "lon": -51.36856916985004,
        "alt_km": 777.9813577943905,
        "timestamp": "2025-12-04T10:51:50.390666+00:00",
        "meta_object_name": "FENGYUN 1C DEB",
        "meta_object_id": "1999-025CPQ",
        "meta_epoch": "2025-12-02T16:23:08.261664",
        "meta_mean_motion": 14.44796864,
        "meta_eccentricity": 0.00509556,
        "meta_inclination": 99.038,
        "meta_ra_of_asc_node": 309.6517,
        "meta_arg_of_pericenter": 187.7559,
        "meta_mean_anomaly": 349.6916,
        "meta_ephemeris_type": 0,
        "meta_classification_type": "U",
        "meta_norad_cat_id": 31987,
        "meta_element_set_no": 999,
        "meta_rev_at_epoch": 96224,
        "meta_bstar": 0.0013654525,
        "meta_mean_motion_dot": 4.773e-05,
        "meta_mean_motion_ddot": 0,
        "tle_line1": "1 31987U 99025CPQ 25336.68273451  .00004773  00000+0  13655-2 0  9990",
        "tle_line2": "2 31987  99.0380 309.6517 0050955 187.7559 349.6916 14.44796864962240"
      },
      "geometry": {
        "type": "Point",
        "coordinates": [
          -51.36856916985004,
          17.642462001790022
        ]
      }
    },
    {
      "type": "Feature",
      "properties": {
        "norad_id": 31989,
        "name": "FENGYUN 1C DEB",
        "group": "fengyun-1c-debris",
        "lat": 43.29492081973463,
        "lon": 30.836310893166175,
        "alt_km": 900.2259405467848,
        "timestamp": "2025-12-04T10:51:50.390676+00:00",
        "meta_object_name": "FENGYUN 1C DEB",
        "meta_object_id": "1999-025CPS",
        "meta_epoch": "2025-12-03T10:36:56.256192",
        "meta_mean_motion": 13.93565072,
        "meta_eccentricity": 0.01154408,
        "meta_inclination": 99.2145,
        "meta_ra_of_asc_node": 38.6271,
        "meta_arg_of_pericenter": 324.531,
        "meta_mean_anomaly": 52.2307,
        "meta_ephemeris_type": 0,
        "meta_classification_type": "U",
        "meta_norad_cat_id": 31989,
        "meta_element_set_no": 999,
        "meta_rev_at_epoch": 93588,
        "meta_bstar": 0.00073128492,
        "meta_mean_motion_dot": 9.68e-06,
        "meta_mean_motion_ddot": 0,
        "tle_line1": "1 31989U 99025CPS 25337.44231778  .00000968  00000+0  73128-3 0  9997",
        "tle_line2": "2 31989  99.2145  38.6271 0115440 324.5310  52.2307 13.93565072935885"
      },
      "geometry": {
        "type": "Point",
        "coordinates": [
          30.836310893166175,
          43.29492081973463
        ]
      }
    }
  ]
}